GLOBALSTAR M023         
1 25621U 99004A   25280.62720348 -.00000096  00000+0  44679-4 0  9996
2 25621  52.0103  71.0548 0010207  19.9081  81.5309 12.62507964229935
GLOBALSTAR M040         
1 25622U 99004B   25280.47310461 -.00000099  00000+0  24030-4 0  9993
2 25622  51.9912  75.8450 0000048 105.8772 288.7944 12.62018930229431
GLOBALSTAR M036         
1 25623U 99004C   25280.60146529 -.00000042  00000+0  59475-3 0  9999
2 25623  51.9975 304.0211 0010568 265.5949 241.4275 11.86610717192327
GLOBALSTAR M038         
1 25624U 99004D   25280.57026236 -.00000069  00000+0  21830-3 0  9991
2 25624  51.9951 107.9185 0000947 309.5544  88.4072 12.32533373216237
GLOBALSTAR M022         
1 25649U 99012A   25280.64389568 -.00000076  00000+0  12556-3 0  9998
2 25649  52.0069 345.1928 0002710  44.9441 113.4894 12.02503483189903
GLOBALSTAR M041         
1 25650U 99012B   25280.22731696 -.00000106  00000+0 -26958-3 0  9993
2 25650  52.0009 231.1913 0001140 162.5505 197.5370 11.96682627191692
GLOBALSTAR M046         
1 25651U 99012C   25280.52028976 -.00000038  00000+0  56048-3 0  9993
2 25651  52.0052 291.5631 0002153 114.8869  51.3703 12.09412275197256
GLOBALSTAR M037         
1 25652U 99012D   25280.30334574 -.00000079  00000+0  13557-3 0  9997
2 25652  51.9994 202.6213 0002702  70.9318  72.0805 12.62451968225436
